{
  "type": "FeatureCollection",
  "features": [
    {
      "type": "Feature",
      "properties": {
        "norad_id": 25590,
        "name": "COSMOS 2361",
        "group": "musson",
        "lat": -76.76838961642605,
        "lon": -156.41147218281714,
        "alt_km": 977.6063986278996,
        "timestamp": "2025-12-02T08:59:32.983858+00:00",
        "meta_object_name": "COSMOS 2361",
        "meta_object_id": "1998-076A",
        "meta_epoch": "2025-12-02T04:34:49.987776",
        "meta_mean_motion": 13.73215716,
        "meta_eccentricity": 0.0030184,
        "meta_inclination": 82.9342,
        "meta_ra_of_asc_node": 351.8892,
        "meta_arg_of_pericenter": 296.2219,
        "meta_mean_anomaly": 134.4767,
        "meta_ephemeris_type": 0,
        "meta_classification_type": "U",
        "meta_norad_cat_id": 25590,
        "meta_element_set_no": 999,
        "meta_rev_at_epoch": 34966,
        "meta_bstar": 7.729e-05,
        "meta_mean_motion_dot": 8.7e-07,
        "meta_mean_motion_ddot": 0,
        "tle_line1": "1 25590U 98076A   25336.19085634  .00000087  00000+0  77290-4 0  9999",
        "tle_line2": "2 25590  82.9342 351.8892 0030184 296.2219 134.4767 13.73215716349660"
      },
      "geometry": {
        "type": "Point",
        "coordinates": [
          -156.41147218281714,
          -76.76838961642605
        ]
      }
    },
    {
      "type": "Feature",
      "properties": {
        "norad_id": 26818,
        "name": "COSMOS 2378",
        "group": "musson",
        "lat": -61.76764262613046,
        "lon": -5.956466657911961,
        "alt_km": 981.1787471513753,
        "timestamp": "2025-12-02T08:59:32.983879+00:00",
        "meta_object_name": "COSMOS 2378",
        "meta_object_id": "2001-023A",
        "meta_epoch": "2025-12-01T20:09:43.040736",
        "meta_mean_motion": 13.74140422,
        "meta_eccentricity": 0.0031853,
        "meta_inclination": 82.9281,
        "meta_ra_of_asc_node": 7.8072,
        "meta_arg_of_pericenter": 236.0309,
        "meta_mean_anomaly": 297.9488,
        "meta_ephemeris_type": 0,
        "meta_classification_type": "U",
        "meta_norad_cat_id": 26818,
        "meta_element_set_no": 999,
        "meta_rev_at_epoch": 22773,
        "meta_bstar": 5.0735e-05,
        "meta_mean_motion_dot": 6.3e-07,
        "meta_mean_motion_ddot": 0,
        "tle_line1": "1 26818U 01023A   25335.84008149  .00000063  00000+0  50735-4 0  9995",
        "tle_line2": "2 26818  82.9281   7.8072 0031853 236.0309 297.9488 13.74140422227730"
      },
      "geometry": {
        "type": "Point",
        "coordinates": [
          -5.956466657911961,
          -61.76764262613046
        ]
      }
    },
    {
      "type": "Feature",
      "properties": {
        "norad_id": 27436,
        "name": "COSMOS 2389",
        "group": "musson",
        "lat": 72.06027183334105,
        "lon": 112.18530637544744,
        "alt_km": 940.6687232848508,
        "timestamp": "2025-12-02T08:59:32.983892+00:00",
        "meta_object_name": "COSMOS 2389",
        "meta_object_id": "2002-026A",
        "meta_epoch": "2025-12-02T01:50:16.893024",
        "meta_mean_motion": 13.7515292,
        "meta_eccentricity": 0.0047791,
        "meta_inclination": 82.9493,
        "meta_ra_of_asc_node": 314.8795,
        "meta_arg_of_pericenter": 89.6966,
        "meta_mean_anomaly": 341.7031,
        "meta_ephemeris_type": 0,
        "meta_classification_type": "U",
        "meta_norad_cat_id": 27436,
        "meta_element_set_no": 999,
        "meta_rev_at_epoch": 18002,
        "meta_bstar": 6.4939e-05,
        "meta_mean_motion_dot": 7.8e-07,
        "meta_mean_motion_ddot": 0,
        "tle_line1": "1 27436U 02026A   25336.07658441  .00000078  00000+0  64939-4 0  9995",
        "tle_line2": "2 27436  82.9493 314.8795 0047791  89.6966 341.7031 13.75152920180023"
      },
      "geometry": {
        "type": "Point",
        "coordinates": [
          112.18530637544744,
          72.06027183334105
        ]
      }
    },
    {
      "type": "Feature",
      "properties": {
        "norad_id": 27818,
        "name": "COSMOS 2398",
        "group": "musson",
        "lat": 17.421446768883236,
        "lon": 98.11061074944466,
        "alt_km": 969.5301585502511,
        "timestamp": "2025-12-02T08:59:32.983904+00:00",
        "meta_object_name": "COSMOS 2398",
        "meta_object_id": "2003-023A",
        "meta_epoch": "2025-12-02T03:00:40.085280",
        "meta_mean_motion": 13.72384089,
        "meta_eccentricity": 0.0032168,
        "meta_inclination": 82.9473,
        "meta_ra_of_asc_node": 280.5205,
        "meta_arg_of_pericenter": 140.3156,
        "meta_mean_anomaly": 231.2604,
        "meta_ephemeris_type": 0,
        "meta_classification_type": "U",
        "meta_norad_cat_id": 27818,
        "meta_element_set_no": 999,
        "meta_rev_at_epoch": 12671,
        "meta_bstar": 3.4725e-05,
        "meta_mean_motion_dot": 4.7e-07,
        "meta_mean_motion_ddot": 0,
        "tle_line1": "1 27818U 03023A   25336.12546395  .00000047  00000+0  34725-4 0  9993",
        "tle_line2": "2 27818  82.9473 280.5205 0032168 140.3156 231.2604 13.72384089126713"
      },
      "geometry": {
        "type": "Point",
        "coordinates": [
          98.11061074944466,
          17.421446768883236
        ]
      }
    },
    {
      "type": "Feature",
      "properties": {
        "norad_id": 28380,
        "name": "COSMOS 2407",
        "group": "musson",
        "lat": -31.753126540265924,
        "lon": 44.95120206257372,
        "alt_km": 1001.7253871914199,
        "timestamp": "2025-12-02T08:59:32.983915+00:00",
        "meta_object_name": "COSMOS 2407",
        "meta_object_id": "2004-028A",
        "meta_epoch": "2025-12-01T20:05:49.644960",
        "meta_mean_motion": 13.7631169,
        "meta_eccentricity": 0.0040558,
        "meta_inclination": 82.9615,
        "meta_ra_of_asc_node": 220.9639,
        "meta_arg_of_pericenter": 84.393,
        "meta_mean_anomaly": 346.4605,
        "meta_ephemeris_type": 0,
        "meta_classification_type": "U",
        "meta_norad_cat_id": 28380,
        "meta_element_set_no": 999,
        "meta_rev_at_epoch": 7273,
        "meta_bstar": 6.6399e-05,
        "meta_mean_motion_dot": 8.1e-07,
        "meta_mean_motion_ddot": 0,
        "tle_line1": "1 28380U 04028A   25335.83738015  .00000081  00000+0  66399-4 0  9993",
        "tle_line2": "2 28380  82.9615 220.9639 0040558  84.3930 346.4605 13.76311690 72738"
      },
      "geometry": {
        "type": "Point",
        "coordinates": [
          44.95120206257372,
          -31.753126540265924
        ]
      }
    },
    {
      "type": "Feature",
      "properties": {
        "norad_id": 28521,
        "name": "COSMOS 2414",
        "group": "musson",
        "lat": 42.28197167336073,
        "lon": -161.04164393026315,
        "alt_km": 949.7688271843426,
        "timestamp": "2025-12-02T08:59:32.983925+00:00",
        "meta_object_name": "COSMOS 2414",
        "meta_object_id": "2005-002A",
        "meta_epoch": "2025-12-01T20:40:28.562880",
        "meta_mean_motion": 13.87900629,
        "meta_eccentricity": 0.004022,
        "meta_inclination": 82.9499,
        "meta_ra_of_asc_node": 192.8852,
        "meta_arg_of_pericenter": 170.2964,
        "meta_mean_anomaly": 189.8986,
        "meta_ephemeris_type": 0,
        "meta_classification_type": "U",
        "meta_norad_cat_id": 28521,
        "meta_element_set_no": 999,
        "meta_rev_at_epoch": 5644,
        "meta_bstar": 6.858e-05,
        "meta_mean_motion_dot": 9.8e-07,
        "meta_mean_motion_ddot": 0,
        "tle_line1": "1 28521U 05002A   25335.86144170  .00000098  00000+0  68580-4 0  9991",
        "tle_line2": "2 28521  82.9499 192.8852 0040220 170.2964 189.8986 13.87900629 56446"
      },
      "geometry": {
        "type": "Point",
        "coordinates": [
          -161.04164393026315,
          42.28197167336073
        ]
      }
    },
    {
      "type": "Feature",
      "properties": {
        "norad_id": 32052,
        "name": "COSMOS 2429",
        "group": "musson",
        "lat": -66.92755175399655,
        "lon": -25.86159762374665,
        "alt_km": 1008.598321639076,
        "timestamp": "2025-12-02T08:59:32.983952+00:00",
        "meta_object_name": "COSMOS 2429",
        "meta_object_id": "2007-038A",
        "meta_epoch": "2025-12-01T19:21:10.577952",
        "meta_mean_motion": 13.75147728,
        "meta_eccentricity": 0.0039673,
        "meta_inclination": 82.9805,
        "meta_ra_of_asc_node": 351.3694,
        "meta_arg_of_pericenter": 67.5791,
        "meta_mean_anomaly": 292.956,
        "meta_ephemeris_type": 0,
        "meta_classification_type": "U",
        "meta_norad_cat_id": 32052,
        "meta_element_set_no": 999,
        "meta_rev_at_epoch": 91452,
        "meta_bstar": 6.1742e-05,
        "meta_mean_motion_dot": 7.5e-07,
        "meta_mean_motion_ddot": 0,
        "tle_line1": "1 32052U 07038A   25335.80637243  .00000075  00000+0  61742-4 0  9996",
        "tle_line2": "2 32052  82.9805 351.3694 0039673  67.5791 292.9560 13.75147728914529"
      },
      "geometry": {
        "type": "Point",
        "coordinates": [
          -25.86159762374665,
          -66.92755175399655
        ]
      }
    },
    {
      "type": "Feature",
      "properties": {
        "norad_id": 35635,
        "name": "COSMOS 2454",
        "group": "musson",
        "lat": 17.375152297287272,
        "lon": 178.71921872806135,
        "alt_km": 927.6524127386674,
        "timestamp": "2025-12-02T08:59:32.983965+00:00",
        "meta_object_name": "COSMOS 2454",
        "meta_object_id": "2009-039A",
        "meta_epoch": "2025-12-02T02:33:26.529984",
        "meta_mean_motion": 13.89926549,
        "meta_eccentricity": 0.0020469,
        "meta_inclination": 82.9557,
        "meta_ra_of_asc_node": 176.7052,
        "meta_arg_of_pericenter": 102.1545,
        "meta_mean_anomaly": 14.8125,
        "meta_ephemeris_type": 0,
        "meta_classification_type": "U",
        "meta_norad_cat_id": 35635,
        "meta_element_set_no": 999,
        "meta_rev_at_epoch": 83002,
        "meta_bstar": 7.2654e-05,
        "meta_mean_motion_dot": 1.06e-06,
        "meta_mean_motion_ddot": 0,
        "tle_line1": "1 35635U 09039A   25336.10655706  .00000106  00000+0  72654-4 0  9996",
        "tle_line2": "2 35635  82.9557 176.7052 0020469 102.1545  14.8125 13.89926549830027"
      },
      "geometry": {
        "type": "Point",
        "coordinates": [
          178.71921872806135,
          17.375152297287272
        ]
      }
    },
    {
      "type": "Feature",
      "properties": {
        "norad_id": 36519,
        "name": "COSMOS 2463",
        "group": "musson",
        "lat": 19.36091254006539,
        "lon": 36.81668199859102,
        "alt_km": 981.4464798815015,
        "timestamp": "2025-12-02T08:59:32.983976+00:00",
        "meta_object_name": "COSMOS 2463",
        "meta_object_id": "2010-017A",
        "meta_epoch": "2025-12-02T03:55:34.634784",
        "meta_mean_motion": 13.71647684,
        "meta_eccentricity": 0.0035137,
        "meta_inclination": 82.9622,
        "meta_ra_of_asc_node": 34.4839,
        "meta_arg_of_pericenter": 318.378,
        "meta_mean_anomaly": 99.1147,
        "meta_ephemeris_type": 0,
        "meta_classification_type": "U",
        "meta_norad_cat_id": 36519,
        "meta_element_set_no": 999,
        "meta_rev_at_epoch": 78092,
        "meta_bstar": 6.5307e-05,
        "meta_mean_motion_dot": 7.4e-07,
        "meta_mean_motion_ddot": 0,
        "tle_line1": "1 36519U 10017A   25336.16359531  .00000074  00000+0  65307-4 0  9990",
        "tle_line2": "2 36519  82.9622  34.4839 0035137 318.3780  99.1147 13.71647684780929"
      },
      "geometry": {
        "type": "Point",
        "coordinates": [
          36.81668199859102,
          19.36091254006539
        ]
      }
    }
  ]
}